[{"OBJECT_NAME":"STARLINK-3756","OBJECT_ID":"2022-041BA","EPOCH":"2026-03-09T10:30:23.280480","MEAN_MOTION":15.08836789,"ECCENTRICITY":0.00011834,"INCLINATION":53.2166,"RA_OF_ASC_NODE":90.248,"ARG_OF_PERICENTER":91.1181,"MEAN_ANOMALY":268.9947,"EPHEMERIS_TYPE":0,"CLASSIFICATION_TYPE":"U","NORAD_CAT_ID":52309,"ELEMENT_SET_NO":999,"REV_AT_EPOCH":21582,"BSTAR":6.5064709e-5,"MEAN_MOTION_DOT":7.48e-6,"MEAN_MOTION_DDOT":0},{"OBJECT_NAME":"IRIDIUM 33 DEB","OBJECT_ID":"1997-051UN","EPOCH":"2026-03-08T06:46:46.443072","MEAN_MOTION":15.09674475,"ECCENTRICITY":0.00152582,"INCLINATION":86.3393,"RA_OF_ASC_NODE":271.884,"ARG_OF_PERICENTER":69.7211,"MEAN_ANOMALY":290.5665,"EPHEMERIS_TYPE":0,"CLASSIFICATION_TYPE":"U","NORAD_CAT_ID":35929,"ELEMENT_SET_NO":999,"REV_AT_EPOCH":89067,"BSTAR":0.003863549,"MEAN_MOTION_DOT":0.00062834,"MEAN_MOTION_DDOT":0}]
